NORAD_CAT_ID,OBJECT_NAME,OBJECT_TYPE,EPOCH,MEAN_MOTION,ECCENTRICITY,INCLINATION,RA_OF_ASC_NODE,ARG_OF_PERICENTER,MEAN_ANOMALY,BSTAR,MEAN_MOTION_DOT,MEAN_MOTION_DDOT,TLE_LINE0,TLE_LINE1,TLE_LINE2,SEMIMAJOR_AXIS,PERIOD,APOGEE,PERIGEE,DECAYED
53983.0,STARLINK-5103,PAYLOAD,2023-08-08 10:14:54,15.08855048,0.0001682,53.2157,122.9151,72.3023,287.8153,0.00050659,7.787e-05,0.0,0 STARLINK-5103,1 53983U 22125V   23220.42702016  .00007787  00000-0  50659-3 0  9998,2 53983  53.2157 122.9151 0001682  72.3023 287.8153 15.08855048 47120,6917.834,95.437,540.863,538.536,0.0
53983.0,STARLINK-5103,PAYLOAD,2023-08-08 18:11:50,15.08848197,0.0001339,53.2163,121.4308,95.5663,264.5482,0.00014827,2.073e-05,0.0,0 STARLINK-5103,1 53983U 22125V   23220.75821969  .00002073  00000-0  14827-3 0  9993,2 53983  53.2163 121.4308 0001339  95.5663 264.5482 15.08848197 47170,6917.855,95.437,540.647,538.794,0.0
53983.0,STARLINK-5103,PAYLOAD,2023-08-09 10:05:42,15.08837118,0.0002101,53.2162,118.4567,76.7467,283.376,0.00053736,8.274e-05,0.0,0 STARLINK-5103,1 53983U 22125V   23221.42062520  .00008274  00000-0  53736-3 0  9999,2 53983  53.2162 118.4567 0002101  76.7467 283.3760 15.08837118 47273,6917.889,95.438,541.208,538.301,0.0
53983.0,STARLINK-5103,PAYLOAD,2023-08-10 01:59:33,15.08840255,0.0001058,53.2158,115.4833,81.8426,278.2686,0.00057807,8.924e-05,0.0,0 STARLINK-5103,1 53983U 22125V   23222.08302759  .00008924  00000-0  57807-3 0  9998,2 53983  53.2158 115.4833 0001058  81.8426 278.2686 15.08840255 47370,6917.88,95.438,540.477,539.013,0.0
53983.0,STARLINK-5103,PAYLOAD,2023-08-10 09:56:29,15.08833107,0.0001075,53.2155,113.9958,87.0931,273.0184,0.00033057,4.976e-05,0.0,0 STARLINK-5103,1 53983U 22125V   23222.41423000  .00004976  00000-0  33057-3 0  9992,2 53983  53.2155 113.9958 0001075  87.0931 273.0184 15.08833107 47426,6917.901,95.438,540.51,539.023,0.0
53983.0,STARLINK-5103,PAYLOAD,2023-08-11 16:08:49,15.08838316,0.0001598,53.2128,108.3473,79.7192,280.398,0.00018403,2.642e-05,0.0,0 STARLINK-5103,1 53983U 22125V   23223.67279529  .00002642  00000-0  18403-3 0  9992,2 53983  53.2128 108.3473 0001598  79.7192 280.3980 15.08838316 47616,6917.886,95.438,540.856,538.645,0.0
53983.0,STARLINK-5103,PAYLOAD,2023-08-13 01:31:55,15.08848474,0.0001662,53.2153,102.1055,66.9029,293.2139,0.00022813,3.345e-05,0.0,0 STARLINK-5103,1 53983U 22125V   23225.06383196  .00003345  00000-0  22813-3 0  9994,2 53983  53.2153 102.1055 0001662  66.9029 293.2139 15.08848474 47829,6917.854,95.437,540.869,538.57,0.0
53983.0,STARLINK-5103,PAYLOAD,2023-08-13 19:01:09,15.08839395,0.0001348,53.215,98.8321,86.6985,273.4162,0.0001103,1.468e-05,0.0,0 STARLINK-5103,1 53983U 22125V   23225.79247528  .00001468  00000-0  11030-3 0  9995,2 53983  53.2150  98.8321 0001348  86.6985 273.4162 15.08839395 47934,6917.882,95.438,540.68,538.815,0.0
53983.0,STARLINK-5103,PAYLOAD,2023-08-15 01:13:28,15.0885145,0.0001399,53.2162,93.1813,92.6845,267.4307,-4.0733e-05,-9.36e-06,0.0,0 STARLINK-5103,1 53983U 22125V   23227.05102786 -.00000936  00000-0 -40733-4 0  9996,2 53983  53.2162  93.1813 0001399  92.6845 267.4307 15.08851450 48121,6917.845,95.437,540.678,538.743,0.0
53983.0,STARLINK-5103,PAYLOAD,2023-08-15 15:31:57,15.08840032,0.0001468,53.2165,90.5052,91.414,268.7021,0.0001268,1.731e-05,0.0,0 STARLINK-5103,1 53983U 22125V   23227.64719432  .00001731  00000-0  12680-3 0  9994,2 53983  53.2165  90.5052 0001468  91.4140 268.7021 15.08840032 48213,6917.88,95.438,540.761,538.73,0.0
53983.0,STARLINK-5103,PAYLOAD,2023-08-16 21:44:17,15.08838797,0.0001673,53.2151,84.8552,88.2157,271.9027,3.9428e-05,3.39e-06,0.0,0 STARLINK-5103,1 53983U 22125V   23228.90575385  .00000339  00000-0  39428-4 0  9994,2 53983  53.2151  84.8552 0001673  88.2157 271.9027 15.08838797 48407,6917.884,95.438,540.906,538.592,0.0
53983.0,STARLINK-5103,PAYLOAD,2023-08-18 00:45:50,15.08842396,0.0001692,53.2139,79.7997,93.6116,266.507,0.000177,2.53e-05,0.0,0 STARLINK-5103,1 53983U 22125V   23230.03183209  .00002530  00000-0  17700-3 0  9994,2 53983  53.2139  79.7997 0001692  93.6116 266.5070 15.08842396 48571,6917.873,95.437,540.909,538.568,0.0
53983.0,STARLINK-5103,PAYLOAD,2023-08-18 15:04:18,15.08834738,0.0002087,53.2134,77.1207,94.8011,265.3219,5.954e-05,6.59e-06,0.0,0 STARLINK-5103,1 53983U 22125V   23230.62799689  .00000659  00000-0  59540-4 0  9993,2 53983  53.2134  77.1207 0002087  94.8011 265.3219 15.08834738 48661,6917.896,95.438,541.205,538.318,0.0
53983.0,STARLINK-5103,PAYLOAD,2023-08-19 22:52:01,15.08844183,0.0001588,53.2135,71.1732,104.3864,255.7304,-0.00012133,-2.219e-05,0.0,0 STARLINK-5103,1 53983U 22125V   23231.95279673 -.00002219  00000-0 -12133-3 0  9998,2 53983  53.2135  71.1732 0001588 104.3864 255.7304 15.08844183 48862,6917.868,95.437,540.831,538.634,0.0
53983.0,STARLINK-5103,PAYLOAD,2023-08-21 08:15:07,15.0883968,0.000134,53.2154,64.9323,62.8635,297.2493,0.00013235,1.819e-05,0.0,0 STARLINK-5103,1 53983U 22125V   23233.34384228  .00001819  00000-0  13235-3 0  9993,2 53983  53.2154  64.9323 0001340  62.8635 297.2493 15.08839680 49079,6917.881,95.438,540.673,538.819,0.0
53983.0,STARLINK-5103,PAYLOAD,2023-08-22 12:52:04,15.08840554,0.0001186,53.2161,59.5774,88.9615,271.1513,2.7139e-05,1.44e-06,0.0,0 STARLINK-5103,1 53983U 22125V   23234.53616086  .00000144  00000-0  27139-4 0  9994,2 53983  53.2161  59.5774 0001186  88.9615 271.1513 15.08840554 49258,6917.879,95.438,540.564,538.923,0.0
53983.0,STARLINK-5103,PAYLOAD,2023-08-23 12:42:52,15.08826674,0.0001611,53.2167,55.1197,88.0248,272.0928,-1.6868e-05,-5.56e-06,0.0,0 STARLINK-5103,1 53983U 22125V   23235.52977210 -.00000556  00000-0 -16868-4 0  9999,2 53983  53.2167  55.1197 0001611  88.0248 272.0928 15.08826674 49405,6917.921,95.438,540.901,538.672,0.0
53983.0,STARLINK-5103,PAYLOAD,2023-08-24 12:33:38,15.08845147,8.46e-05,53.2196,50.6551,82.0948,278.014,8.4101e-05,1.051e-05,0.0,0 STARLINK-5103,1 53983U 22125V   23236.52336541  .00001051  00000-0  84101-4 0  9990,2 53983  53.2196  50.6551 0000846  82.0948 278.0140 15.08845147 49555,6917.865,95.437,540.315,539.144,0.0
53983.0,STARLINK-5103,PAYLOAD,2023-08-24 22:05:56,15.08853251,8e-05,53.2172,48.8687,81.4275,278.6807,0.00020466,2.972e-05,0.0,0 STARLINK-5103,1 53983U 22125V   23236.92079800  .00002972  00000-0  20466-3 0  9992,2 53983  53.2172  48.8687 0000800  81.4275 278.6807 15.08853251 49544,6917.84,95.437,540.258,539.151,0.0
53983.0,STARLINK-5103,PAYLOAD,2023-08-25 10:49:02,15.08847394,0.0002527,53.2186,46.4906,113.1127,247.0132,-9.534e-05,-1.806e-05,0.0,0 STARLINK-5103,1 53983U 22125V   23237.45072443 -.00001806  00000-0 -95340-4 0  9998,2 53983  53.2186  46.4906 0002527 113.1127 247.0132 15.08847394 49692,6917.858,95.437,541.471,537.975,0.0
53983.0,STARLINK-5103,PAYLOAD,2023-08-25 18:45:58,15.08838946,0.0001274,53.2175,45.0079,79.1574,280.9562,8.5106e-05,1.067e-05,0.0,0 STARLINK-5103,1 53983U 22125V   23237.78192975  .00001067  00000-0  85106-4 0  9993,2 53983  53.2175  45.0079 0001274  79.1574 280.9562 15.08838946 49675,6917.884,95.438,540.63,538.867,0.0
53983.0,STARLINK-5103,PAYLOAD,2023-08-26 12:15:13,15.0884309,0.0001444,53.2172,41.7372,87.3299,272.7858,4.8577e-05,4.85e-06,0.0,0 STARLINK-5103,1 53983U 22125V   23238.51056764  .00000485  00000-0  48577-4 0  9994,2 53983  53.2172  41.7372 0001444  87.3299 272.7858 15.08843090 49780,6917.871,95.437,540.735,538.737,0.0
53983.0,STARLINK-5103,PAYLOAD,2023-08-26 18:36:45,15.08847986,0.000132,53.2178,40.5486,71.6629,288.4506,0.00013584,1.875e-05,0.0,0 STARLINK-5103,1 53983U 22125V   23238.77552569  .00001875  00000-0  13584-3 0  9999,2 53983  53.2178  40.5486 0001320  71.6629 288.4506 15.08847986 49822,6917.856,95.437,540.634,538.808,0.0
53983.0,STARLINK-5103,PAYLOAD,2023-08-27 16:52:09,15.08842595,0.0001518,53.2183,36.3863,71.9077,288.208,0.00017,2.419e-05,0.0,0 STARLINK-5103,1 53983U 22125V   23239.70289025  .00002419  00000-0  17000-3 0  9999,2 53983  53.2183  36.3863 0001518  71.9077 288.2080 15.08842595 50030,6917.872,95.437,540.788,538.687,0.0
53983.0,STARLINK-5103,PAYLOAD,2023-08-28 19:53:42,15.08848578,0.000136,53.2174,31.3287,94.7099,265.4049,0.00015057,2.11e-05,0.0,0 STARLINK-5103,1 53983U 22125V   23240.82896505  .00002110  00000-0  15057-3 0  9999,2 53983  53.2174  31.3287 0001360  94.7099 265.4049 15.08848578 50137,6917.854,95.437,540.66,538.778,0.0
53983.0,STARLINK-5103,PAYLOAD,2023-08-29 10:12:11,15.08837562,0.0001231,53.2172,28.6526,97.5258,262.5874,5.0549e-05,5.17e-06,0.0,0 STARLINK-5103,1 53983U 22125V   23241.42513067  .00000517  00000-0  50549-4 0  9990,2 53983  53.2172  28.6526 0001231  97.5258 262.5874 15.08837562 50297,6917.888,95.438,540.604,538.901,0.0
53983.0,STARLINK-5103,PAYLOAD,2023-08-29 16:33:43,15.08841612,0.0001368,53.2175,27.4632,100.4854,259.6292,9.3467e-05,1.2e-05,0.0,0 STARLINK-5103,1 53983U 22125V   23241.69008885  .00001200  00000-0  93467-4 0  9992,2 53983  53.2175  27.4632 0001368 100.4854 259.6292 15.08841612 50261,6917.875,95.437,540.687,538.794,0.0
53983.0,STARLINK-5103,PAYLOAD,2023-08-30 16:24:30,15.08844161,0.0001311,53.2175,23.002,96.6054,263.5087,9.1962e-05,1.176e-05,0.0,0 STARLINK-5103,1 53983U 22125V   23242.68368787  .00001176  00000-0  91962-4 0  9992,2 53983  53.2175  23.0020 0001311  96.6054 263.5087 15.08844161 50482,6917.868,95.437,540.64,538.826,0.0
53983.0,STARLINK-5103,PAYLOAD,2023-08-31 09:53:45,15.08834454,0.0001235,53.2169,19.7329,87.262,272.8513,1.7653e-05,-7e-08,0.0,0 STARLINK-5103,1 53983U 22125V   23243.41233418 -.00000007  00000-0  17653-4 0  9994,2 53983  53.2169  19.7329 0001235  87.2620 272.8513 15.08834454 50592,6917.897,95.438,540.617,538.908,0.0
53983.0,STARLINK-5103,PAYLOAD,2023-08-31 11:29:08,15.0883803,0.0001274,53.2177,19.4346,88.0768,272.037,4.2071e-05,3.82e-06,0.0,0 STARLINK-5103,1 53983U 22125V   23243.47857239  .00000382  00000-0  42071-4 0  9990,2 53983  53.2177  19.4346 0001274  88.0768 272.0370 15.08838030 50533,6917.886,95.438,540.633,538.87,0.0
